[{"OBJECT_NAME":"GOES 19","OBJECT_ID":"2024-119A","EPOCH":"2026-03-14T21:50:36.371616","MEAN_MOTION":1.00271425,"ECCENTRICITY":0.00010744,"INCLINATION":0.0396,"RA_OF_ASC_NODE":336.0564,"ARG_OF_PERICENTER":66.265,"MEAN_ANOMALY":22.6583,"EPHEMERIS_TYPE":0,"CLASSIFICATION_TYPE":"U","NORAD_CAT_ID":60133,"ELEMENT_SET_NO":999,"REV_AT_EPOCH":601,"BSTAR":0,"MEAN_MOTION_DOT":-2.49e-6,"MEAN_MOTION_DDOT":0},{"OBJECT_NAME":"FENGYUN 3H","OBJECT_ID":"2025-219A","EPOCH":"2026-03-14T21:34:06.259584","MEAN_MOTION":14.19934202,"ECCENTRICITY":0.00011791,"INCLINATION":98.669,"RA_OF_ASC_NODE":16.5404,"ARG_OF_PERICENTER":59.6005,"MEAN_ANOMALY":300.5288,"EPHEMERIS_TYPE":0,"CLASSIFICATION_TYPE":"U","NORAD_CAT_ID":65815,"ELEMENT_SET_NO":999,"REV_AT_EPOCH":2400,"BSTAR":6.201536e-5,"MEAN_MOTION_DOT":8.8e-7,"MEAN_MOTION_DDOT":0}]
