GOES 19                 
1 60133U 24119A   26073.91014319 -.00000249  00000+0  00000+0 0  9990
2 60133   0.0396 336.0564 0001074  66.2650  22.6583  1.00271425  6012
FENGYUN 3H              
1 65815U 25219A   26073.89868356  .00000088  00000+0  62015-4 0  9998
2 65815  98.6690  16.5404 0001179  59.6005 300.5288 14.19934202 24005
